KUIPER-00215            
1 67779U 26030R   26057.90408502  .00021377  00000+0  64971-3 0  9994
2 67779  51.8850 271.2824 0009916  28.5622 331.5905 15.33954204  3433
KUIPER-00218            
1 67780U 26030S   26057.89765937  .00020019  00000+0  59500-3 0  9996
2 67780  51.8837 271.2376 0006415  24.9476 335.1818 15.34730926  3437
KUIPER-00220            
1 67781U 26030T   26057.90187169  .00019702  00000+0  59465-3 0  9991
2 67781  51.8817 271.2601 0008049  26.7133 333.4266 15.34243992  3432
KUIPER-00222            
1 67782U 26030U   26057.91559664  .00019419  00000+0  61671-3 0  9993
2 67782  51.8820 271.3469 0017269  32.2517 327.9520 15.32525839  3434
KUIPER-00223            
1 67783U 26030V   26057.84135883  .00025318  00000+0  77139-3 0  9990
2 67783  51.8837 271.6081 0012161  28.1750 331.9891 15.33749621  3428
KUIPER-00225            
1 67784U 26030W   26057.89164829  .00019861  00000+0  57869-3 0  9992
2 67784  51.8808 271.1955 0003611  15.9961 344.1139 15.35372834  3432
KUIPER-00226            
1 67785U 26030X   26057.85732145  .00000613  00000+0  32001-4 0  9998
2 67785  51.8828 271.7058 0019619  39.5475 320.6936 15.31447180  3428
KUIPER-00259            
1 67786U 26030Y   26057.89916075  .00019953  00000+0  59603-3 0  9992
2 67786  51.8814 271.2431 0007891  20.0105 340.1189 15.34564346  3433
KUIPER-00260            
1 67787U 26030Z   26057.88633868  .00020751  00000+0  59378-3 0  9995
2 67787  51.8793 271.1606 0001151  86.6987 273.4131 15.35915671  3349
KUIPER-00262            
1 67788U 26030AA  26057.88413614  .00022267  00000+0  63008-3 0  9990
2 67788  51.8806 271.1482 0001363 134.8655 225.2442 15.36219788  3437
KUIPER-00266            
1 67789U 26030AB  26057.86022492  .00029105  00000+0  95984-3 0  9995
2 67789  51.8822 271.7219 0022256  39.6997 320.5611 15.30974754  3426
KUIPER-00268            
1 67790U 26030AC  26057.88965954  .00027352  00000+0  78758-3 0  9990
2 67790  51.8842 271.1888 0001826  27.7321 332.3762 15.35553527  3430
