CCSDS_OMM_VERS = 2.0
CREATION_DATE  = 
ORIGINATOR     = 

OBJECT_NAME    = KUIPER-00215
OBJECT_ID      = 2026-030R
CENTER_NAME    = EARTH
REF_FRAME      = TEME
TIME_SYSTEM    = UTC
MEAN_ELEMENT_THEORY = SGP/SGP4

EPOCH          = 2026-02-26T21:41:52.945728
MEAN_MOTION    = 15.33954204
ECCENTRICITY   = .00099165
INCLINATION    = 51.8850
RA_OF_ASC_NODE = 271.2824
ARG_OF_PERICENTER = 28.5622
MEAN_ANOMALY   = 331.5905

EPHEMERIS_TYPE = 0
CLASSIFICATION_TYPE = U
NORAD_CAT_ID   = 67779
ELEMENT_SET_NO = 999
REV_AT_EPOCH   = 343
BSTAR          = .64971116E-3
MEAN_MOTION_DOT = .21377E-3
MEAN_MOTION_DDOT = 0

CCSDS_OMM_VERS = 2.0
CREATION_DATE  = 
ORIGINATOR     = 

OBJECT_NAME    = KUIPER-00218
OBJECT_ID      = 2026-030S
CENTER_NAME    = EARTH
REF_FRAME      = TEME
TIME_SYSTEM    = UTC
MEAN_ELEMENT_THEORY = SGP/SGP4

EPOCH          = 2026-02-26T21:32:37.769568
MEAN_MOTION    = 15.34730926
ECCENTRICITY   = .00064158
INCLINATION    = 51.8837
RA_OF_ASC_NODE = 271.2376
ARG_OF_PERICENTER = 24.9476
MEAN_ANOMALY   = 335.1818

EPHEMERIS_TYPE = 0
CLASSIFICATION_TYPE = U
NORAD_CAT_ID   = 67780
ELEMENT_SET_NO = 999
REV_AT_EPOCH   = 343
BSTAR          = .5950016E-3
MEAN_MOTION_DOT = .20019E-3
MEAN_MOTION_DDOT = 0

CCSDS_OMM_VERS = 2.0
CREATION_DATE  = 
ORIGINATOR     = 

OBJECT_NAME    = KUIPER-00220
OBJECT_ID      = 2026-030T
CENTER_NAME    = EARTH
REF_FRAME      = TEME
TIME_SYSTEM    = UTC
MEAN_ELEMENT_THEORY = SGP/SGP4

EPOCH          = 2026-02-26T21:38:41.714016
MEAN_MOTION    = 15.34243992
ECCENTRICITY   = .00080498
INCLINATION    = 51.8817
RA_OF_ASC_NODE = 271.2601
ARG_OF_PERICENTER = 26.7133
MEAN_ANOMALY   = 333.4266

EPHEMERIS_TYPE = 0
CLASSIFICATION_TYPE = U
NORAD_CAT_ID   = 67781
ELEMENT_SET_NO = 999
REV_AT_EPOCH   = 343
BSTAR          = .59464955E-3
MEAN_MOTION_DOT = .19702E-3
MEAN_MOTION_DDOT = 0

CCSDS_OMM_VERS = 2.0
CREATION_DATE  = 
ORIGINATOR     = 

OBJECT_NAME    = KUIPER-00222
OBJECT_ID      = 2026-030U
CENTER_NAME    = EARTH
REF_FRAME      = TEME
TIME_SYSTEM    = UTC
MEAN_ELEMENT_THEORY = SGP/SGP4

EPOCH          = 2026-02-26T21:58:27.549696
MEAN_MOTION    = 15.32525839
ECCENTRICITY   = .00172692
INCLINATION    = 51.8820
RA_OF_ASC_NODE = 271.3469
ARG_OF_PERICENTER = 32.2517
MEAN_ANOMALY   = 327.9520

EPHEMERIS_TYPE = 0
CLASSIFICATION_TYPE = U
NORAD_CAT_ID   = 67782
ELEMENT_SET_NO = 999
REV_AT_EPOCH   = 343
BSTAR          = .61670958E-3
MEAN_MOTION_DOT = .19419E-3
MEAN_MOTION_DDOT = 0

CCSDS_OMM_VERS = 2.0
CREATION_DATE  = 
ORIGINATOR     = 

OBJECT_NAME    = KUIPER-00223
OBJECT_ID      = 2026-030V
CENTER_NAME    = EARTH
REF_FRAME      = TEME
TIME_SYSTEM    = UTC
MEAN_ELEMENT_THEORY = SGP/SGP4

EPOCH          = 2026-02-26T20:11:33.402912
MEAN_MOTION    = 15.33749621
ECCENTRICITY   = .00121616
INCLINATION    = 51.8837
RA_OF_ASC_NODE = 271.6081
ARG_OF_PERICENTER = 28.1750
MEAN_ANOMALY   = 331.9891

EPHEMERIS_TYPE = 0
CLASSIFICATION_TYPE = U
NORAD_CAT_ID   = 67783
ELEMENT_SET_NO = 999
REV_AT_EPOCH   = 342
BSTAR          = .77139429E-3
MEAN_MOTION_DOT = .25318E-3
MEAN_MOTION_DDOT = 0

CCSDS_OMM_VERS = 2.0
CREATION_DATE  = 
ORIGINATOR     = 

OBJECT_NAME    = KUIPER-00225
OBJECT_ID      = 2026-030W
CENTER_NAME    = EARTH
REF_FRAME      = TEME
TIME_SYSTEM    = UTC
MEAN_ELEMENT_THEORY = SGP/SGP4

EPOCH          = 2026-02-26T21:23:58.412256
MEAN_MOTION    = 15.35372834
ECCENTRICITY   = .00036114
INCLINATION    = 51.8808
RA_OF_ASC_NODE = 271.1955
ARG_OF_PERICENTER = 15.9961
MEAN_ANOMALY   = 344.1139

EPHEMERIS_TYPE = 0
CLASSIFICATION_TYPE = U
NORAD_CAT_ID   = 67784
ELEMENT_SET_NO = 999
REV_AT_EPOCH   = 343
BSTAR          = .57868822E-3
MEAN_MOTION_DOT = .19861E-3
MEAN_MOTION_DDOT = 0

CCSDS_OMM_VERS = 2.0
CREATION_DATE  = 
ORIGINATOR     = 

OBJECT_NAME    = KUIPER-00226
OBJECT_ID      = 2026-030X
CENTER_NAME    = EARTH
REF_FRAME      = TEME
TIME_SYSTEM    = UTC
MEAN_ELEMENT_THEORY = SGP/SGP4

EPOCH          = 2026-02-26T20:34:32.573280
MEAN_MOTION    = 15.31447180
ECCENTRICITY   = .00196195
INCLINATION    = 51.8828
RA_OF_ASC_NODE = 271.7058
ARG_OF_PERICENTER = 39.5475
MEAN_ANOMALY   = 320.6936

EPHEMERIS_TYPE = 0
CLASSIFICATION_TYPE = U
NORAD_CAT_ID   = 67785
ELEMENT_SET_NO = 999
REV_AT_EPOCH   = 342
BSTAR          = .32001423E-4
MEAN_MOTION_DOT = .613E-5
MEAN_MOTION_DDOT = 0

CCSDS_OMM_VERS = 2.0
CREATION_DATE  = 
ORIGINATOR     = 

OBJECT_NAME    = KUIPER-00259
OBJECT_ID      = 2026-030Y
CENTER_NAME    = EARTH
REF_FRAME      = TEME
TIME_SYSTEM    = UTC
MEAN_ELEMENT_THEORY = SGP/SGP4

EPOCH          = 2026-02-26T21:34:47.488800
MEAN_MOTION    = 15.34564346
ECCENTRICITY   = .0007891
INCLINATION    = 51.8814
RA_OF_ASC_NODE = 271.2431
ARG_OF_PERICENTER = 20.0105
MEAN_ANOMALY   = 340.1189

EPHEMERIS_TYPE = 0
CLASSIFICATION_TYPE = U
NORAD_CAT_ID   = 67786
ELEMENT_SET_NO = 999
REV_AT_EPOCH   = 343
BSTAR          = .5960349E-3
MEAN_MOTION_DOT = .19953E-3
MEAN_MOTION_DDOT = 0

CCSDS_OMM_VERS = 2.0
CREATION_DATE  = 
ORIGINATOR     = 

OBJECT_NAME    = KUIPER-00260
OBJECT_ID      = 2026-030Z
CENTER_NAME    = EARTH
REF_FRAME      = TEME
TIME_SYSTEM    = UTC
MEAN_ELEMENT_THEORY = SGP/SGP4

EPOCH          = 2026-02-26T21:16:19.661952
MEAN_MOTION    = 15.35915671
ECCENTRICITY   = .00011512
INCLINATION    = 51.8793
RA_OF_ASC_NODE = 271.1606
ARG_OF_PERICENTER = 86.6987
MEAN_ANOMALY   = 273.4131

EPHEMERIS_TYPE = 0
CLASSIFICATION_TYPE = U
NORAD_CAT_ID   = 67787
ELEMENT_SET_NO = 999
REV_AT_EPOCH   = 334
BSTAR          = .59377668E-3
MEAN_MOTION_DOT = .20751E-3
MEAN_MOTION_DDOT = 0

CCSDS_OMM_VERS = 2.0
CREATION_DATE  = 
ORIGINATOR     = 

OBJECT_NAME    = KUIPER-00262
OBJECT_ID      = 2026-030AA
CENTER_NAME    = EARTH
REF_FRAME      = TEME
TIME_SYSTEM    = UTC
MEAN_ELEMENT_THEORY = SGP/SGP4

EPOCH          = 2026-02-26T21:13:09.362496
MEAN_MOTION    = 15.36219788
ECCENTRICITY   = .00013633
INCLINATION    = 51.8806
RA_OF_ASC_NODE = 271.1482
ARG_OF_PERICENTER = 134.8655
MEAN_ANOMALY   = 225.2442

EPHEMERIS_TYPE = 0
CLASSIFICATION_TYPE = U
NORAD_CAT_ID   = 67788
ELEMENT_SET_NO = 999
REV_AT_EPOCH   = 343
BSTAR          = .63008352E-3
MEAN_MOTION_DOT = .22267E-3
MEAN_MOTION_DDOT = 0

CCSDS_OMM_VERS = 2.0
CREATION_DATE  = 
ORIGINATOR     = 

OBJECT_NAME    = KUIPER-00266
OBJECT_ID      = 2026-030AB
CENTER_NAME    = EARTH
REF_FRAME      = TEME
TIME_SYSTEM    = UTC
MEAN_ELEMENT_THEORY = SGP/SGP4

EPOCH          = 2026-02-26T20:38:43.433088
MEAN_MOTION    = 15.30974754
ECCENTRICITY   = .00222565
INCLINATION    = 51.8822
RA_OF_ASC_NODE = 271.7219
ARG_OF_PERICENTER = 39.6997
MEAN_ANOMALY   = 320.5611

EPHEMERIS_TYPE = 0
CLASSIFICATION_TYPE = U
NORAD_CAT_ID   = 67789
ELEMENT_SET_NO = 999
REV_AT_EPOCH   = 342
BSTAR          = .95983644E-3
MEAN_MOTION_DOT = .29105E-3
MEAN_MOTION_DDOT = 0

CCSDS_OMM_VERS = 2.0
CREATION_DATE  = 
ORIGINATOR     = 

OBJECT_NAME    = KUIPER-00268
OBJECT_ID      = 2026-030AC
CENTER_NAME    = EARTH
REF_FRAME      = TEME
TIME_SYSTEM    = UTC
MEAN_ELEMENT_THEORY = SGP/SGP4

EPOCH          = 2026-02-26T21:21:06.584256
MEAN_MOTION    = 15.35553527
ECCENTRICITY   = .00018266
INCLINATION    = 51.8842
RA_OF_ASC_NODE = 271.1888
ARG_OF_PERICENTER = 27.7321
MEAN_ANOMALY   = 332.3762

EPHEMERIS_TYPE = 0
CLASSIFICATION_TYPE = U
NORAD_CAT_ID   = 67790
ELEMENT_SET_NO = 999
REV_AT_EPOCH   = 343
BSTAR          = .78758008E-3
MEAN_MOTION_DOT = .27352E-3
MEAN_MOTION_DDOT = 0

